{
  "norad_id": 47746,
  "name": "STARLINK-2160",
  "history": [
    {
      "epoch": "2026-05-02T05:23:30.643872Z",
      "apogee_km": 439.40632133641793,
      "perigee_km": 437.9488863741126,
      "latitude_deg": 1.9602244639791995e-05,
      "longitude_deg": 12.56926866478767,
      "height_km": 439.6221737004793,
      "semi_major_axis_km": 6816.814603855265,
      "eccentricity": 0.0001069,
      "inclination_deg": 53.159,
      "raan_deg": 313.5927,
      "arg_perigee_deg": 266.9341,
      "mean_anomaly_deg": 93.1543,
      "mean_motion_rev_day": 15.42519056
    },
    {
      "epoch": "2026-05-03T17:09:16.668000Z",
      "apogee_km": 439.0430712976049,
      "perigee_km": 437.0432040452115,
      "latitude_deg": 5.40923361653711e-06,
      "longitude_deg": -172.39553835845075,
      "height_km": 438.7995185042684,
      "semi_major_axis_km": 6816.180137671408,
      "eccentricity": 0.0001467,
      "inclination_deg": 53.1599,
      "raan_deg": 306.5384,
      "arg_perigee_deg": 278.6155,
      "mean_anomaly_deg": 81.4685,
      "mean_motion_rev_day": 15.42734433
    },
    {
      "epoch": "2026-05-04T18:01:49.272672Z",
      "apogee_km": 438.8214187331132,
      "perigee_km": 436.45498158361806,
      "latitude_deg": 2.5986594685842356e-06,
      "longitude_deg": 168.5398935414466,
      "height_km": 438.1788867271753,
      "semi_major_axis_km": 6815.775200158365,
      "eccentricity": 0.0001736,
      "inclination_deg": 53.1601,
      "raan_deg": 301.6313,
      "arg_perigee_deg": 288.0066,
      "mean_anomaly_deg": 72.0751,
      "mean_motion_rev_day": 15.4287192
    },
    {
      "epoch": "2026-05-05T20:27:30.151584Z",
      "apogee_km": 438.5503174941023,
      "perigee_km": 435.91004424823313,
      "latitude_deg": -7.838360132372678e-06,
      "longitude_deg": 125.81919249610615,
      "height_km": 437.57741765987714,
      "semi_major_axis_km": 6815.367180871167,
      "eccentricity": 0.0001937,
      "inclination_deg": 53.1591,
      "raan_deg": 296.4163,
      "arg_perigee_deg": 295.0647,
      "mean_anomaly_deg": 65.0158,
      "mean_motion_rev_day": 15.43010474
    },
    {
      "epoch": "2026-05-06T18:13:14.691648Z",
      "apogee_km": 438.3808299092698,
      "perigee_km": 435.4040250553453,
      "latitude_deg": -1.4762864933820414e-05,
      "longitude_deg": 154.1943514018117,
      "height_km": 437.15966763717057,
      "semi_major_axis_km": 6815.029427482307,
      "eccentricity": 0.0002184,
      "inclination_deg": 53.1582,
      "raan_deg": 292.1208,
      "arg_perigee_deg": 295.4421,
      "mean_anomaly_deg": 64.6359,
      "mean_motion_rev_day": 15.43125183
    },
    {
      "epoch": "2026-05-07T20:38:40.510176Z",
      "apogee_km": 438.09784774946456,
      "perigee_km": 434.9399362091217,
      "latitude_deg": 2.8289958857258607e-05,
      "longitude_deg": 111.5369139005385,
      "height_km": 436.54646990410953,
      "semi_major_axis_km": 6814.655891979292,
      "eccentricity": 0.0002317,
      "inclination_deg": 53.159,
      "raan_deg": 286.9061,
      "arg_perigee_deg": 303.8351,
      "mean_anomaly_deg": 56.2435,
      "mean_motion_rev_day": 15.43252061
    },
    {
      "epoch": "2026-05-08T16:50:58.523136Z",
      "apogee_km": 437.9172412440048,
      "perigee_km": 434.5454917762563,
      "latitude_deg": 2.738654152845149e-05,
      "longitude_deg": 163.64356675259293,
      "height_km": 436.07148854288965,
      "semi_major_axis_km": 6814.368366510131,
      "eccentricity": 0.0002474,
      "inclination_deg": 53.1593,
      "raan_deg": 282.9176,
      "arg_perigee_deg": 309.2513,
      "mean_anomaly_deg": 50.8274,
      "mean_motion_rev_day": 15.43349736
    },
    {
      "epoch": "2026-05-09T16:09:42.166080Z",
      "apogee_km": 437.78770580102537,
      "perigee_km": 434.1898473909823,
      "latitude_deg": -5.3771898442945065e-05,
      "longitude_deg": 168.40116364720808,
      "height_km": 435.6578210684744,
      "semi_major_axis_km": 6814.125776596004,
      "eccentricity": 0.000264,
      "inclination_deg": 53.1591,
      "raan_deg": 278.3145,
      "arg_perigee_deg": 313.4776,
      "mean_anomaly_deg": 46.601,
      "mean_motion_rev_day": 15.43432154
    },
    {
      "epoch": "2026-05-10T13:55:05.958912Z",
      "apogee_km": 437.6209404500132,
      "perigee_km": 433.8010972506454,
      "latitude_deg": 2.8989404408871357e-05,
      "longitude_deg": -163.1383249087358,
      "height_km": 435.2018996720859,
      "semi_major_axis_km": 6813.848018850329,
      "eccentricity": 0.0002803,
      "inclination_deg": 53.1593,
      "raan_deg": 274.0176,
      "arg_perigee_deg": 317.849,
      "mean_anomaly_deg": 42.2301,
      "mean_motion_rev_day": 15.43526529
    },
    {
      "epoch": "2026-05-11T16:20:07.274400Z",
      "apogee_km": 437.4434019124965,
      "perigee_km": 433.31986043690904,
      "latitude_deg": 1.9084558060352082e-05,
      "longitude_deg": 154.30387705177893,
      "height_km": 434.6406600370382,
      "semi_major_axis_km": 6813.518631174703,
      "eccentricity": 0.0003026,
      "inclination_deg": 53.1589,
      "raan_deg": 268.8002,
      "arg_perigee_deg": 323.0541,
      "mean_anomaly_deg": 37.0257,
      "mean_motion_rev_day": 15.43638459
    },
    {
      "epoch": "2026-05-12T18:45:02.115936Z",
      "apogee_km": 437.31353864590164,
      "perigee_km": 432.8536044597631,
      "latitude_deg": -1.8895794067755883e-05,
      "longitude_deg": 111.77190761548614,
      "height_km": 434.14652716743905,
      "semi_major_axis_km": 6813.220571552833,
      "eccentricity": 0.0003273,
      "inclination_deg": 53.1583,
      "raan_deg": 263.5816,
      "arg_perigee_deg": 325.7766,
      "mean_anomaly_deg": 34.3029,
      "mean_motion_rev_day": 15.43739755
    },
    {
      "epoch": "2026-05-13T11:50:31.537248Z",
      "apogee_km": 437.325573503299,
      "perigee_km": 432.57140244978837,
      "latitude_deg": 3.309144990252942e-05,
      "longitude_deg": -148.68126521998167,
      "height_km": 433.7884028738314,
      "semi_major_axis_km": 6813.085487976543,
      "eccentricity": 0.0003489,
      "inclination_deg": 53.1572,
      "raan_deg": 260.2029,
      "arg_perigee_deg": 330.3909,
      "mean_anomaly_deg": 29.69,
      "mean_motion_rev_day": 15.43785667
    },
    {
      "epoch": "2026-05-14T01:49:32.457504Z",
      "apogee_km": 437.25823156346905,
      "perigee_km": 432.4309615830325,
      "latitude_deg": -8.634205855570094e-06,
      "longitude_deg": -1.7709159539832264,
      "height_km": 433.6680751227337,
      "semi_major_axis_km": 6812.9815965732505,
      "eccentricity": 0.00035427,
      "inclination_deg": 53.1571,
      "raan_deg": 257.4414,
      "arg_perigee_deg": 329.6653,
      "mean_anomaly_deg": 30.4148,
      "mean_motion_rev_day": 15.43820979
    },
    {
      "epoch": "2026-05-14T14:15:18.131040Z",
      "apogee_km": 437.7671733871648,
      "perigee_km": 431.60987793358345,
      "latitude_deg": -4.456101637995615e-05,
      "longitude_deg": 168.8253955660178,
      "height_km": 432.9531960718007,
      "semi_major_axis_km": 6812.825525660374,
      "eccentricity": 0.00045189,
      "inclination_deg": 53.1615,
      "raan_deg": 254.9885,
      "arg_perigee_deg": 329.1474,
      "mean_anomaly_deg": 30.9266,
      "mean_motion_rev_day": 15.43874029
    },
    {
      "epoch": "2026-05-16T17:31:22.755072Z",
      "apogee_km": 436.99105210587186,
      "perigee_km": 431.52478642265487,
      "latitude_deg": 2.2527422110174413e-05,
      "longitude_deg": 107.56657658618363,
      "height_km": 432.6335146517897,
      "semi_major_axis_km": 6812.394919264263,
      "eccentricity": 0.0004012,
      "inclination_deg": 53.16,
      "raan_deg": 244.8544,
      "arg_perigee_deg": 337.8371,
      "mean_anomaly_deg": 22.2462,
      "mean_motion_rev_day": 15.44020412
    }
  ]
}